{"type": "FeatureCollection", "features": [ {"type": "Feature", "properties": {"norad_id": 34375, "name": "IRIDIUM 33 DEB", "group": "iridium-33-debris", "lat": 55.987127771902784, "lon": -3.9848095149288167, "alt_km": 752.9453734068102, "timestamp": "2025-12-16T03:53:27.440361+00:00", "meta": {"OBJECT_NAME": "IRIDIUM 33 DEB", "OBJECT_ID": "1997-051FT", "EPOCH": "2025-12-15T00:56:33.827424", "MEAN_MOTION": 14.17996256, "ECCENTRICITY": 0.01034429, "INCLINATION": 86.4324, "RA_OF_ASC_NODE": 181.7722, "ARG_OF_PERICENTER": 119.5182, "MEAN_ANOMALY": 35.8016, "EPHEMERIS_TYPE": 0, "CLASSIFICATION_TYPE": "U", "NORAD_CAT_ID": 34375, "ELEMENT_SET_NO": 999, "REV_AT_EPOCH": 86744, "BSTAR": 0.00043375333, "MEAN_MOTION_DOT": 9.56e-06, "MEAN_MOTION_DDOT": 0}, "tle": {"line1": "1 34375U 97051FT  25349.03928041  .00000956  00000+0  43375-3 0  9998", "line2": "2 34375  86.4324 181.7722 0103442 119.5182  35.8016 14.17996256867442"}}, "geometry": {"type": "Point", "coordinates": [-3.9848095149288167, 55.987127771902784]}}, {"type": "Feature", "properties": {"norad_id": 34376, "name": "IRIDIUM 33 DEB", "group": "iridium-33-debris", "lat": -35.25743043536153, "lon": 2.3785045347673512, "alt_km": 710.2078581205951, "timestamp": "2025-12-16T03:53:27.440371+00:00", "meta": {"OBJECT_NAME": "IRIDIUM 33 DEB", "OBJECT_ID": "1997-051FU", "EPOCH": "2025-12-15T08:20:58.080480", "MEAN_MOTION": 14.62608414, "ECCENTRICITY": 0.00274923, "INCLINATION": 86.2984, "RA_OF_ASC_NODE": 5.3675, "ARG_OF_PERICENTER": 157.9871, "MEAN_ANOMALY": 202.2528, "EPHEMERIS_TYPE": 0, "CLASSIFICATION_TYPE": "U", "NORAD_CAT_ID": 34376, "ELEMENT_SET_NO": 999, "REV_AT_EPOCH": 88045, "BSTAR": 0.00095353915, "MEAN_MOTION_DOT": 4.892e-05, "MEAN_MOTION_DDOT": 0}, "tle": {"line1": "1 34376U 97051FU  25349.34789445  .00004892  00000+0  95354-3 0  9993", "line2": "2 34376  86.2984   5.3675 0027492 157.9871 202.2528 14.62608414880452"}}, "geometry": {"type": "Point", "coordinates": [2.3785045347673512, -35.25743043536153]}}, {"type": "Feature", "properties": {"norad_id": 34486, "name": "IRIDIUM 33 DEB", "group": "iridium-33-debris", "lat": -50.966420677503336, "lon": -165.092634685204, "alt_km": 592.4165775826086, "timestamp": "2025-12-16T03:53:27.440382+00:00", "meta": {"OBJECT_NAME": "IRIDIUM 33 DEB", "OBJECT_ID": "1997-051GB", "EPOCH": "2025-12-15T07:39:20.571840", "MEAN_MOTION": 14.95929492, "ECCENTRICITY": 0.00138879, "INCLINATION": 86.3933, "RA_OF_ASC_NODE": 10.8345, "ARG_OF_PERICENTER": 105.9317, "MEAN_ANOMALY": 267.3911, "EPHEMERIS_TYPE": 0, "CLASSIFICATION_TYPE": "U", "NORAD_CAT_ID": 34486, "ELEMENT_SET_NO": 999, "REV_AT_EPOCH": 89025, "BSTAR": 0.0012770954, "MEAN_MOTION_DOT": 0.00014361, "MEAN_MOTION_DDOT": 0}, "tle": {"line1": "1 34486U 97051GB  25349.31898810  .00014361  00000+0  12771-2 0  9992", "line2": "2 34486  86.3933  10.8345 0013887 105.9317 267.3911 14.95929492890250"}}, "geometry": {"type": "Point", "coordinates": [-165.092634685204, -50.966420677503336]}}, {"type": "Feature", "properties": {"norad_id": 34487, "name": "IRIDIUM 33 DEB", "group": "iridium-33-debris", "lat": -41.88473182590623, "lon": 7.616627603122706, "alt_km": 776.5395855450079, "timestamp": "2025-12-16T03:53:27.440392+00:00", "meta": {"OBJECT_NAME": "IRIDIUM 33 DEB", "OBJECT_ID": "1997-051GC", "EPOCH": "2025-12-15T08:23:34.253664", "MEAN_MOTION": 14.43219441, "ECCENTRICITY": 0.00329501, "INCLINATION": 86.3435, "RA_OF_ASC_NODE": 11.2537, "ARG_OF_PERICENTER": 120.2163, "MEAN_ANOMALY": 299.7021, "EPHEMERIS_TYPE": 0, "CLASSIFICATION_TYPE": "U", "NORAD_CAT_ID": 34487, "ELEMENT_SET_NO": 999, "REV_AT_EPOCH": 88286, "BSTAR": 0.00018955044, "MEAN_MOTION_DOT": 6.62e-06, "MEAN_MOTION_DDOT": 0}, "tle": {"line1": "1 34487U 97051GC  25349.34970201  .00000662  00000+0  18955-3 0  9991", "line2": "2 34487  86.3435  11.2537 0032950 120.2163 299.7021 14.43219441882865"}}, "geometry": {"type": "Point", "coordinates": [7.616627603122706, -41.88473182590623]}}, {"type": "Feature", "properties": {"norad_id": 34488, "name": "IRIDIUM 33 DEB", "group": "iridium-33-debris", "lat": -85.59717378072264, "lon": -112.53229952452413, "alt_km": 488.20439777347565, "timestamp": "2025-12-16T03:53:27.440402+00:00", "meta": {"OBJECT_NAME": "IRIDIUM 33 DEB", "OBJECT_ID": "1997-051GD", "EPOCH": "2025-12-15T07:52:10.159104", "MEAN_MOTION": 15.30106772, "ECCENTRICITY": 0.00125058, "INCLINATION": 86.3226, "RA_OF_ASC_NODE": 304.5313, "ARG_OF_PERICENTER": 47.2926, "MEAN_ANOMALY": 312.9373, "EPHEMERIS_TYPE": 0, "CLASSIFICATION_TYPE": "U", "NORAD_CAT_ID": 34488, "ELEMENT_SET_NO": 999, "REV_AT_EPOCH": 89279, "BSTAR": 0.0029801446, "MEAN_MOTION_DOT": 0.00087866, "MEAN_MOTION_DDOT": 0}, "tle": {"line1": "1 34488U 97051GD  25349.32789536  .00087866  00000+0  29801-2 0  9991", "line2": "2 34488  86.3226 304.5313 0012505  47.2926 312.9373 15.30106772892793"}}, "geometry": {"type": "Point", "coordinates": [-112.53229952452413, -85.59717378072264]}}, {"type": "Feature", "properties": {"norad_id": 34492, "name": "IRIDIUM 33 DEB", "group": "iridium-33-debris", "lat": -12.30514828213594, "lon": 154.01704677377506, "alt_km": 698.1011126280064, "timestamp": "2025-12-16T03:53:27.440412+00:00", "meta": {"OBJECT_NAME": "IRIDIUM 33 DEB", "OBJECT_ID": "1997-051GH", "EPOCH": "2025-12-14T05:35:02.651712", "MEAN_MOTION": 14.25773186, "ECCENTRICITY": 0.01889467, "INCLINATION": 86.4719, "RA_OF_ASC_NODE": 334.0254, "ARG_OF_PERICENTER": 233.3245, "MEAN_ANOMALY": 142.6912, "EPHEMERIS_TYPE": 0, "CLASSIFICATION_TYPE": "U", "NORAD_CAT_ID": 34492, "ELEMENT_SET_NO": 999, "REV_AT_EPOCH": 85080, "BSTAR": 0.00441868, "MEAN_MOTION_DOT": 0.00012689, "MEAN_MOTION_DDOT": 0}, "tle": {"line1": "1 34492U 97051GH  25348.23266958  .00012689  00000+0  44187-2 0  9998", "line2": "2 34492  86.4719 334.0254 0188946 233.3245 142.6912 14.25773186850808"}}, "geometry": {"type": "Point", "coordinates": [154.01704677377506, -12.30514828213594]}}, {"type": "Feature", "properties": {"norad_id": 34497, "name": "IRIDIUM 33 DEB", "group": "iridium-33-debris", "lat": 85.0609494844853, "lon": -177.9359565930557, "alt_km": 824.6296730114545, "timestamp": "2025-12-16T03:53:27.440423+00:00", "meta": {"OBJECT_NAME": "IRIDIUM 33 DEB", "OBJECT_ID": "1997-051GN", "EPOCH": "2025-12-15T04:02:13.460640", "MEAN_MOTION": 14.27461536, "ECCENTRICITY": 0.00785278, "INCLINATION": 86.2779, "RA_OF_ASC_NODE": 51.3639, "ARG_OF_PERICENTER": 331.6581, "MEAN_ANOMALY": 56.4646, "EPHEMERIS_TYPE": 0, "CLASSIFICATION_TYPE": "U", "NORAD_CAT_ID": 34497, "ELEMENT_SET_NO": 999, "REV_AT_EPOCH": 86918, "BSTAR": 0.00050796249, "MEAN_MOTION_DOT": 1.306e-05, "MEAN_MOTION_DDOT": 0}, "tle": {"line1": "1 34497U 97051GN  25349.16821135  .00001306  00000+0  50796-3 0  9998", "line2": "2 34497  86.2779  51.3639 0078527 331.6581  56.4646 14.27461536869183"}}, "geometry": {"type": "Point", "coordinates": [-177.9359565930557, 85.0609494844853]}}, {"type": "Feature", "properties": {"norad_id": 34508, "name": "IRIDIUM 33 DEB", "group": "iridium-33-debris", "lat": 24.985986663927996, "lon": 102.88757646738419, "alt_km": 797.2928628406962, "timestamp": "2025-12-16T03:53:27.440433+00:00", "meta": {"OBJECT_NAME": "IRIDIUM 33 DEB", "OBJECT_ID": "1997-051GZ", "EPOCH": "2025-12-15T07:44:21.164352", "MEAN_MOTION": 14.3845066, "ECCENTRICITY": 0.00663138, "INCLINATION": 86.3701, "RA_OF_ASC_NODE": 101.5484, "ARG_OF_PERICENTER": 164.6268, "MEAN_ANOMALY": 195.6966, "EPHEMERIS_TYPE": 0, "CLASSIFICATION_TYPE": "U", "NORAD_CAT_ID": 34508, "ELEMENT_SET_NO": 999, "REV_AT_EPOCH": 87346, "BSTAR": 0.0009626791, "MEAN_MOTION_DOT": 3.033e-05, "MEAN_MOTION_DDOT": 0}, "tle": {"line1": "1 34508U 97051GZ  25349.32246718  .00003033  00000+0  96268-3 0  9990", "line2": "2 34508  86.3701 101.5484 0066313 164.6268 195.6966 14.38450660873469"}}, "geometry": {"type": "Point", "coordinates": [102.88757646738419, 24.985986663927996]}}, {"type": "Feature", "properties": {"norad_id": 34521, "name": "IRIDIUM 33 DEB", "group": "iridium-33-debris", "lat": 29.588116098604004, "lon": -153.01793437038046, "alt_km": 679.9829969599987, "timestamp": "2025-12-16T03:53:27.440444+00:00", "meta": {"OBJECT_NAME": "IRIDIUM 33 DEB", "OBJECT_ID": "1997-051HN", "EPOCH": "2025-12-15T09:09:16.292448", "MEAN_MOTION": 14.63392326, "ECCENTRICITY": 0.00018712, "INCLINATION": 86.3802, "RA_OF_ASC_NODE": 29.3855, "ARG_OF_PERICENTER": 201.0271, "MEAN_ANOMALY": 159.0864, "EPHEMERIS_TYPE": 0, "CLASSIFICATION_TYPE": "U", "NORAD_CAT_ID": 34521, "ELEMENT_SET_NO": 999, "REV_AT_EPOCH": 88511, "BSTAR": 0.00059300813, "MEAN_MOTION_DOT": 3.086e-05, "MEAN_MOTION_DDOT": 0}, "tle": {"line1": "1 34521U 97051HN  25349.38143857  .00003086  00000+0  59301-3 0  9996", "line2": "2 34521  86.3802  29.3855 0001871 201.0271 159.0864 14.63392326885111"}}, "geometry": {"type": "Point", "coordinates": [-153.01793437038046, 29.588116098604004]}}, {"type": "Feature", "properties": {"norad_id": 34525, "name": "IRIDIUM 33 DEB", "group": "iridium-33-debris", "lat": 76.86680443468468, "lon": 61.15888799590842, "alt_km": 737.0847750697139, "timestamp": "2025-12-16T03:53:27.440454+00:00", "meta": {"OBJECT_NAME": "IRIDIUM 33 DEB", "OBJECT_ID": "1997-051HS", "EPOCH": "2025-12-15T04:28:59.630592", "MEAN_MOTION": 14.42911437, "ECCENTRICITY": 0.00066073, "INCLINATION": 86.3728, "RA_OF_ASC_NODE": 45.7994, "ARG_OF_PERICENTER": 89.4716, "MEAN_ANOMALY": 324.8651, "EPHEMERIS_TYPE": 0, "CLASSIFICATION_TYPE": "U", "NORAD_CAT_ID": 34525, "ELEMENT_SET_NO": 999, "REV_AT_EPOCH": 88123, "BSTAR": 0.00037118065, "MEAN_MOTION_DOT": 1.26e-05, "MEAN_MOTION_DDOT": 0}, "tle": {"line1": "1 34525U 97051HS  25349.18680128  .00001260  00000+0  37118-3 0  9999", "line2": "2 34525  86.3728  45.7994 0006607  89.4716 324.8651 14.42911437881234"}}, "geometry": {"type": "Point", "coordinates": [61.15888799590842, 76.86680443468468]}}]}